start=new Date('2023-05-15T00:00:00.000Z').valueOf();
sats=[{"SITE":"AFETR","LAUNCH_DATE":"2022-09-24","TIME_SYSTEM":"UTC","ARG_OF_PERICENTER":"89.0858","PERIOD":"95.438","EPOCH":"2023-05-14T17:12:28.526112","REV_AT_EPOCH":"3633","DECAY_DATE":null,"CENTER_NAME":"EARTH","MEAN_MOTION_DDOT":"0.0000000000000","APOAPSIS":"540.478","INCLINATION":"53.2170","RA_OF_ASC_NODE":"257.8740","MEAN_ELEMENT_THEORY":"SGP4","TLE_LINE2":"2 53917  53.2170 257.8740 0001056  89.0858 271.0255 15.08839272 36330","FILE":"3908005","REF_FRAME":"TEME","MEAN_ANOMALY":"271.0255","OBJECT_NAME":"STARLINK-5036","GP_ID":"231855118","CLASSIFICATION_TYPE":"U","RCS_SIZE":"LARGE","OBJECT_TYPE":"PAYLOAD","ECCENTRICITY":"0.00010560","OBJECT_ID":"2022-119AH","TLE_LINE1":"1 53917U 22119AH  23134.71699683  .00000738  00000-0  64439-4 0  9990","PERIAPSIS":"539.017","MEAN_MOTION":"15.08839272","NORAD_CAT_ID":"53917","SEMIMAJOR_AXIS":"6917.883","MEAN_MOTION_DOT":"0.00000738","BSTAR":"0.00006443900000","ELEMENT_SET_NO":"999","COUNTRY_CODE":"US","EPHEMERIS_TYPE":"0"},{"COUNTRY_CODE":"US","EPHEMERIS_TYPE":"0","ELEMENT_SET_NO":"999","BSTAR":"0.00005906000000","NORAD_CAT_ID":"53918","SEMIMAJOR_AXIS":"6917.881","MEAN_MOTION_DOT":"0.00000652","TLE_LINE1":"1 53918U 22119AJ  23134.77217998  .00000652  00000-0  59060-4 0  9991","PERIAPSIS":"538.918","MEAN_MOTION":"15.08839864","OBJECT_TYPE":"PAYLOAD","ECCENTRICITY":"0.00011960","OBJECT_ID":"2022-119AJ","OBJECT_NAME":"STARLINK-5012","GP_ID":"231854868","CLASSIFICATION_TYPE":"U","RCS_SIZE":"LARGE","TLE_LINE2":"2 53918  53.2152 257.5038 0001196 103.4744 256.6381 15.08839864 36345","FILE":"3908005","REF_FRAME":"TEME","MEAN_ANOMALY":"256.6381","INCLINATION":"53.2152","RA_OF_ASC_NODE":"257.5038","MEAN_ELEMENT_THEORY":"SGP4","DECAY_DATE":null,"CENTER_NAME":"EARTH","MEAN_MOTION_DDOT":"0.0000000000000","APOAPSIS":"540.573","REV_AT_EPOCH":"3634","PERIOD":"95.438","EPOCH":"2023-05-14T18:31:56.350272","SITE":"AFETR","TIME_SYSTEM":"UTC","LAUNCH_DATE":"2022-09-24","ARG_OF_PERICENTER":"103.4744"},{"LAUNCH_DATE":"2022-09-24","TIME_SYSTEM":"UTC","SITE":"AFETR","ARG_OF_PERICENTER":"103.2923","PERIOD":"95.438","EPOCH":"2023-05-14T13:40:28.860672","RA_OF_ASC_NODE":"258.3728","INCLINATION":"53.2180","MEAN_ELEMENT_THEORY":"SGP4","TLE_LINE2":"2 53919  53.2180 258.3728 0001373 103.2923 256.8222 15.08835000 36317","FILE":"3907744","MEAN_ANOMALY":"256.8222","REF_FRAME":"TEME","REV_AT_EPOCH":"3631","CENTER_NAME":"EARTH","DECAY_DATE":null,"APOAPSIS":"540.710","MEAN_MOTION_DDOT":"0.0000000000000","PERIAPSIS":"538.811","TLE_LINE1":"1 53919U 22119AK  23134.56977848  .00000181  00000-0  29484-4 0  9990","MEAN_MOTION":"15.08835000","SEMIMAJOR_AXIS":"6917.896","NORAD_CAT_ID":"53919","MEAN_MOTION_DOT":"0.00000181","OBJECT_NAME":"STARLINK-5023","RCS_SIZE":"LARGE","CLASSIFICATION_TYPE":"U","GP_ID":"231821755","OBJECT_TYPE":"PAYLOAD","OBJECT_ID":"2022-119AK","ECCENTRICITY":"0.00013730","COUNTRY_CODE":"US","EPHEMERIS_TYPE":"0","BSTAR":"0.00002948400000","ELEMENT_SET_NO":"999"},{"ECCENTRICITY":"0.00011500","OBJECT_ID":"2022-119AL","OBJECT_TYPE":"PAYLOAD","GP_ID":"231854368","CLASSIFICATION_TYPE":"U","RCS_SIZE":"LARGE","OBJECT_NAME":"STARLINK-5025","MEAN_MOTION_DOT":"0.00000272","NORAD_CAT_ID":"53920","SEMIMAJOR_AXIS":"6917.871","MEAN_MOTION":"15.08842937","TLE_LINE1":"1 53920U 22119AL  23134.62864547  .00000272  00000-0  35145-4 0  9992","PERIAPSIS":"538.941","ELEMENT_SET_NO":"999","BSTAR":"0.00003514500000","EPHEMERIS_TYPE":"0","COUNTRY_CODE":"US","EPOCH":"2023-05-14T15:05:14.968608","PERIOD":"95.437","ARG_OF_PERICENTER":"99.1106","SITE":"AFETR","TIME_SYSTEM":"UTC","LAUNCH_DATE":"2022-09-24","MEAN_MOTION_DDOT":"0.0000000000000","APOAPSIS":"540.532","DECAY_DATE":null,"CENTER_NAME":"EARTH","REV_AT_EPOCH":"3632","REF_FRAME":"TEME","MEAN_ANOMALY":"261.0016","TLE_LINE2":"2 53920  53.2174 258.0316 0001150  99.1106 261.0016 15.08842937 36328","FILE":"3908005","MEAN_ELEMENT_THEORY":"SGP4","INCLINATION":"53.2174","RA_OF_ASC_NODE":"258.0316"},{"COUNTRY_CODE":"US","EPHEMERIS_TYPE":"0","ELEMENT_SET_NO":"999","BSTAR":"0.00031891000000","SEMIMAJOR_AXIS":"6917.875","NORAD_CAT_ID":"53922","MEAN_MOTION_DOT":"0.00004792","PERIAPSIS":"539.256","TLE_LINE1":"1 53922U 22119AN  23134.62496155  .00004792  00000-0  31891-3 0  9994","MEAN_MOTION":"15.08841730","OBJECT_TYPE":"PAYLOAD","OBJECT_ID":"2022-119AN","ECCENTRICITY":"0.00007000","OBJECT_NAME":"STARLINK-5002","RCS_SIZE":"LARGE","GP_ID":"231854618","CLASSIFICATION_TYPE":"U","FILE":"3908005","TLE_LINE2":"2 53922  53.2153 258.0097 0000700  63.9223 296.1841 15.08841730 36327","MEAN_ANOMALY":"296.1841","REF_FRAME":"TEME","RA_OF_ASC_NODE":"258.0097","INCLINATION":"53.2153","MEAN_ELEMENT_THEORY":"SGP4","CENTER_NAME":"EARTH","DECAY_DATE":null,"APOAPSIS":"540.224","MEAN_MOTION_DDOT":"0.0000000000000","REV_AT_EPOCH":"3632","PERIOD":"95.437","EPOCH":"2023-05-14T14:59:56.677920","LAUNCH_DATE":"2022-09-24","TIME_SYSTEM":"UTC","SITE":"AFETR","ARG_OF_PERICENTER":"63.9223"},{"MEAN_MOTION":"15.08833538","PERIAPSIS":"538.801","TLE_LINE1":"1 53923U 22119AP  23134.76481393 -.00000114  00000-0  10909-4 0  9991","MEAN_MOTION_DOT":"-0.00000114","SEMIMAJOR_AXIS":"6917.900","NORAD_CAT_ID":"53923","RCS_SIZE":"LARGE","GP_ID":"231855369","CLASSIFICATION_TYPE":"U","OBJECT_NAME":"STARLINK-5004","OBJECT_ID":"2022-119AP","ECCENTRICITY":"0.00013930","OBJECT_TYPE":"PAYLOAD","EPHEMERIS_TYPE":"0","COUNTRY_CODE":"US","BSTAR":"0.00001090900000","ELEMENT_SET_NO":"999","ARG_OF_PERICENTER":"112.4930","TIME_SYSTEM":"UTC","LAUNCH_DATE":"2022-09-24","SITE":"AFETR","EPOCH":"2023-05-14T18:21:19.923552","PERIOD":"95.438","MEAN_ELEMENT_THEORY":"SGP4","RA_OF_ASC_NODE":"257.4619","INCLINATION":"53.2180","REF_FRAME":"TEME","MEAN_ANOMALY":"247.6209","FILE":"3908005","TLE_LINE2":"2 53923  53.2180 257.4619 0001393 112.4930 247.6209 15.08833538 36343","REV_AT_EPOCH":"3634","APOAPSIS":"540.729","MEAN_MOTION_DDOT":"0.0000000000000","CENTER_NAME":"EARTH","DECAY_DATE":null},{"NORAD_CAT_ID":"53924","SEMIMAJOR_AXIS":"6917.905","MEAN_MOTION_DOT":"-0.00022191","TLE_LINE1":"1 53924U 22119AQ  23134.91667824 -.00022191  00000-0 -13808-2 0  9993","PERIAPSIS":"538.782","MEAN_MOTION":"15.08832082","OBJECT_TYPE":"PAYLOAD","ECCENTRICITY":"0.00014270","OBJECT_ID":"2022-119AQ","OBJECT_NAME":"STARLINK-5001","CLASSIFICATION_TYPE":"U","GP_ID":"231855370","RCS_SIZE":"LARGE","COUNTRY_CODE":"US","EPHEMERIS_TYPE":"0","ELEMENT_SET_NO":"999","BSTAR":"-0.00138080000000","PERIOD":"95.438","EPOCH":"2023-05-14T22:00:00.999936","SITE":"AFETR","LAUNCH_DATE":"2022-09-24","TIME_SYSTEM":"UTC","ARG_OF_PERICENTER":"91.8730","FILE":"3908005","TLE_LINE2":"2 53924  53.2147 251.8557 0001427  91.8730 341.0473 15.08832082  1305","REF_FRAME":"TEME","MEAN_ANOMALY":"341.0473","INCLINATION":"53.2147","RA_OF_ASC_NODE":"251.8557","MEAN_ELEMENT_THEORY":"SGP4","DECAY_DATE":null,"CENTER_NAME":"EARTH","MEAN_MOTION_DDOT":"0.0000000000000","APOAPSIS":"540.757","REV_AT_EPOCH":"130"},{"FILE":"3908005","TLE_LINE2":"2 53925  53.2172 257.3291 0000830 105.3384 254.7700 15.08840676 36346","MEAN_ANOMALY":"254.7700","REF_FRAME":"TEME","RA_OF_ASC_NODE":"257.3291","INCLINATION":"53.2172","MEAN_ELEMENT_THEORY":"SGP4","CENTER_NAME":"EARTH","DECAY_DATE":null,"APOAPSIS":"540.318","MEAN_MOTION_DDOT":"0.0000000000000","REV_AT_EPOCH":"3634","PERIOD":"95.438","EPOCH":"2023-05-14T17:49:29.520192","TIME_SYSTEM":"UTC","LAUNCH_DATE":"2022-09-24","SITE":"AFETR","ARG_OF_PERICENTER":"105.3384","COUNTRY_CODE":"US","EPHEMERIS_TYPE":"0","ELEMENT_SET_NO":"999","BSTAR":"0.00004807700000","SEMIMAJOR_AXIS":"6917.878","NORAD_CAT_ID":"53925","MEAN_MOTION_DOT":"0.00000478","PERIAPSIS":"539.169","TLE_LINE1":"1 53925U 22119AR  23134.74270278  .00000478  00000-0  48077-4 0  9998","MEAN_MOTION":"15.08840676","OBJECT_TYPE":"PAYLOAD","OBJECT_ID":"2022-119AR","ECCENTRICITY":"0.00008300","OBJECT_NAME":"STARLINK-5011","RCS_SIZE":"LARGE","GP_ID":"231856121","CLASSIFICATION_TYPE":"U"},{"OBJECT_TYPE":"PAYLOAD","ECCENTRICITY":"0.00010160","OBJECT_ID":"2022-119AS","OBJECT_NAME":"STARLINK-5014","CLASSIFICATION_TYPE":"U","GP_ID":"231856372","RCS_SIZE":"LARGE","NORAD_CAT_ID":"53926","SEMIMAJOR_AXIS":"6917.890","MEAN_MOTION_DOT":"-0.00000052","TLE_LINE1":"1 53926U 22119AS  23134.69350890 -.00000052  00000-0  14807-4 0  9995","PERIAPSIS":"539.052","MEAN_MOTION":"15.08836780","ELEMENT_SET_NO":"999","BSTAR":"0.00001480700000","COUNTRY_CODE":"US","EPHEMERIS_TYPE":"0","PERIOD":"95.438","EPOCH":"2023-05-14T16:38:39.168960","SITE":"AFETR","TIME_SYSTEM":"UTC","LAUNCH_DATE":"2022-09-24","ARG_OF_PERICENTER":"80.0917","DECAY_DATE":null,"CENTER_NAME":"EARTH","MEAN_MOTION_DDOT":"0.0000000000000","APOAPSIS":"540.458","REV_AT_EPOCH":"3641","TLE_LINE2":"2 53926  53.2156 252.7389 0001016  80.0917 280.0190 15.08836780 36418","FILE":"3908005","REF_FRAME":"TEME","MEAN_ANOMALY":"280.0190","INCLINATION":"53.2156","RA_OF_ASC_NODE":"252.7389","MEAN_ELEMENT_THEORY":"SGP4"},{"APOAPSIS":"540.652","MEAN_MOTION_DDOT":"0.0000000000000","CENTER_NAME":"EARTH","DECAY_DATE":null,"REV_AT_EPOCH":"3642","MEAN_ANOMALY":"285.9703","REF_FRAME":"TEME","TLE_LINE2":"2 53927  53.2153 252.2679 0001352  74.1438 285.9703 15.08849466 36428","FILE":"3908005","MEAN_ELEMENT_THEORY":"SGP4","RA_OF_ASC_NODE":"252.2679","INCLINATION":"53.2153","EPOCH":"2023-05-14T20:15:56.931552","PERIOD":"95.437","ARG_OF_PERICENTER":"74.1438","TIME_SYSTEM":"UTC","LAUNCH_DATE":"2022-09-24","SITE":"AFETR","ELEMENT_SET_NO":"999","BSTAR":"0.00010625000000","EPHEMERIS_TYPE":"0","COUNTRY_CODE":"US","OBJECT_ID":"2022-119AT","ECCENTRICITY":"0.00013520","OBJECT_TYPE":"PAYLOAD","RCS_SIZE":"LARGE","GP_ID":"231857123","CLASSIFICATION_TYPE":"U","OBJECT_NAME":"STARLINK-5008","MEAN_MOTION_DOT":"0.00001404","SEMIMAJOR_AXIS":"6917.851","NORAD_CAT_ID":"53927","MEAN_MOTION":"15.08849466","PERIAPSIS":"538.781","TLE_LINE1":"1 53927U 22119AT  23134.84440893  .00001404  00000-0  10625-3 0  9990"}];
